CTC2_L_00128001-01
1 36222U 24825QW  26037.47791667  .00000000  00000+0  00000-0 0  9990
2 36222  55.0000   0.0000 0000000   0.0000   0.0000 13.03091717    10
CTC2_L_00128001-02
1 36223U 22666DY  26037.47791667  .00000000  00000+0  00000-0 0  9992
2 36223  55.0000   0.0000 0000000   0.0000  90.0000 13.03091717    10
CTC2_L_00128001-03
1 36224U 23390YW  26037.47791667  .00000000  00000+0  00000-0 0  9998
2 36224  55.0000   0.0000 0000000   0.0000 180.0000 13.03091717    11
CTC2_L_00128001-04
1 36225U 23515GV  26037.47791667  .00000000  00000+0  00000-0 0  9998
2 36225  55.0000   0.0000 0000000   0.0000 270.0000 13.03091717    12
CTC2_L_00128002-01
1 36226U 22242UA  26037.47791667  .00000000  00000+0  00000-0 0  9995
2 36226  55.0000  12.0000 0000000   0.0000  12.0000 13.03091717    10
CTC2_L_00128002-02
1 36227U 22874WQ  26037.47791667  .00000000  00000+0  00000-0 0  9997
2 36227  55.0000  12.0000 0000000   0.0000 102.0000 13.03091717    11
CTC2_L_00128002-03
1 36228U 22223ES  26037.47791667  .00000000  00000+0  00000-0 0  9996
2 36228  55.0000  12.0000 0000000   0.0000 192.0000 13.03091717    11
CTC2_L_00128002-04
1 36229U 22312PP  26037.47791667  .00000000  00000+0  00000-0 0  9996
2 36229  55.0000  12.0000 0000000   0.0000 282.0000 13.03091717    12
CTC2_L_00128003-01
1 36230U 25349GU  26037.47791667  .00000000  00000+0  00000-0 0  9991
2 36230  55.0000  24.0000 0000000   0.0000  24.0000 13.03091717    11
CTC2_L_00128003-02
1 36231U 23885CT  26037.47791667  .00000000  00000+0  00000-0 0  9995
2 36231  55.0000  24.0000 0000000   0.0000 114.0000 13.03091717    12
CTC2_L_00128003-03
1 36232U 26379SH  26037.47791667  .00000000  00000+0  00000-0 0  9997
2 36232  55.0000  24.0000 0000000   0.0000 204.0000 13.03091717    13
CTC2_L_00128003-04
1 36233U 26790TI  26037.47791667  .00000000  00000+0  00000-0 0  9995
2 36233  55.0000  24.0000 0000000   0.0000 294.0000 13.03091717    13
CTC2_L_00128004-01
1 36234U 26780AH  26037.47791667  .00000000  00000+0  00000-0 0  9995
2 36234  55.0000  36.0000 0000000   0.0000  36.0000 13.03091717    11
CTC2_L_00128004-02
1 36235U 23634UJ  26037.47791667  .00000000  00000+0  00000-0 0  9991
2 36235  55.0000  36.0000 0000000   0.0000 126.0000 13.03091717    12
CTC2_L_00128004-03
1 36236U 26762IL  26037.47791667  .00000000  00000+0  00000-0 0  9997
2 36236  55.0000  36.0000 0000000   0.0000 216.0000 13.03091717    13
CTC2_L_00128004-04
1 36237U 24652SQ  26037.47791667  .00000000  00000+0  00000-0 0  9994
2 36237  55.0000  36.0000 0000000   0.0000 306.0000 13.03091717    14
CTC2_L_00128005-01
1 36238U 23663ET  26037.47791667  .00000000  00000+0  00000-0 0  9996
2 36238  55.0000  48.0000 0000000   0.0000  48.0000 13.03091717    11
CTC2_L_00128005-02
1 36239U 23146PG  26037.47791667  .00000000  00000+0  00000-0 0  9993
2 36239  55.0000  48.0000 0000000   0.0000 138.0000 13.03091717    12
CTC2_L_00128005-03
1 36240U 26604YG  26037.47791667  .00000000  00000+0  00000-0 0  9997
2 36240  55.0000  48.0000 0000000   0.0000 228.0000 13.03091717    14
CTC2_L_00128005-04
1 36241U 23729VP  26037.47791667  .00000000  00000+0  00000-0 0  9993
2 36241  55.0000  48.0000 0000000   0.0000 318.0000 13.03091717    15
CTC2_L_00128006-01
1 36242U 25572CG  26037.47791667  .00000000  00000+0  00000-0 0  9992
2 36242  55.0000  60.0000 0000000   0.0000  60.0000 13.03091717    14
CTC2_L_00128006-02
1 36243U 25904DT  26037.47791667  .00000000  00000+0  00000-0 0  9992
2 36243  55.0000  60.0000 0000000   0.0000 150.0000 13.03091717    15
CTC2_L_00128006-03
1 36244U 24171YI  26037.47791667  .00000000  00000+0  00000-0 0  9998
2 36244  55.0000  60.0000 0000000   0.0000 240.0000 13.03091717    16
CTC2_L_00128006-04
1 36245U 25467NB  26037.47791667  .00000000  00000+0  00000-0 0  9998
2 36245  55.0000  60.0000 0000000   0.0000 330.0000 13.03091717    17
CTC2_L_00128007-01
1 36246U 22325XD  26037.47791667  .00000000  00000+0  00000-0 0  9999
2 36246  55.0000  72.0000 0000000   0.0000  72.0000 13.03091717    14
CTC2_L_00128007-02
1 36247U 23164RQ  26037.47791667  .00000000  00000+0  00000-0 0  9992
2 36247  55.0000  72.0000 0000000   0.0000 162.0000 13.03091717    15
CTC2_L_00128007-03
1 36248U 26539GU  26037.47791667  .00000000  00000+0  00000-0 0  9992
2 36248  55.0000  72.0000 0000000   0.0000 252.0000 13.03091717    16
CTC2_L_00128007-04
1 36249U 22315XU  26037.47791667  .00000000  00000+0  00000-0 0  9991
2 36249  55.0000  72.0000 0000000   0.0000 342.0000 13.03091717    17
CTC2_L_00128008-01
1 36250U 22799YR  26037.47791667  .00000000  00000+0  00000-0 0  9999
2 36250  55.0000  84.0000 0000000   0.0000  84.0000 13.03091717    15
CTC2_L_00128008-02
1 36251U 22884ZW  26037.47791667  .00000000  00000+0  00000-0 0  9995
2 36251  55.0000  84.0000 0000000   0.0000 174.0000 13.03091717    16
CTC2_L_00128008-03
1 36252U 24784GA  26037.47791667  .00000000  00000+0  00000-0 0  9997
2 36252  55.0000  84.0000 0000000   0.0000 264.0000 13.03091717    17
CTC2_L_00128008-04
1 36253U 22577BI  26037.47791667  .00000000  00000+0  00000-0 0  9996
2 36253  55.0000  84.0000 0000000   0.0000 354.0000 13.03091717    18
CTC2_L_00128009-01
1 36254U 26723BY  26037.47791667  .00000000  00000+0  00000-0 0  9994
2 36254  55.0000  96.0000 0000000   0.0000  96.0000 13.03091717    15
CTC2_L_00128009-02
1 36255U 24502DM  26037.47791667  .00000000  00000+0  00000-0 0  9998
2 36255  55.0000  96.0000 0000000   0.0000 186.0000 13.03091717    16
CTC2_L_00128009-03
1 36256U 26958JT  26037.47791667  .00000000  00000+0  00000-0 0  9996
2 36256  55.0000  96.0000 0000000   0.0000 276.0000 13.03091717    17
CTC2_L_00128009-04
1 36257U 23377MS  26037.47791667  .00000000  00000+0  00000-0 0  9999
2 36257  55.0000  96.0000 0000000   0.0000   6.0000 13.03091717    19
CTC2_L_00128010-01
1 36258U 25064WE  26037.47791667  .00000000  00000+0  00000-0 0  9995
2 36258  55.0000 108.0000 0000000   0.0000 108.0000 13.03091717    17
CTC2_L_00128010-02
1 36259U 26945UG  26037.47791667  .00000000  00000+0  00000-0 0  9995
2 36259  55.0000 108.0000 0000000   0.0000 198.0000 13.03091717    17
CTC2_L_00128010-03
1 36260U 24632KK  26037.47791667  .00000000  00000+0  00000-0 0  9998
2 36260  55.0000 108.0000 0000000   0.0000 288.0000 13.03091717    19
CTC2_L_00128010-04
1 36261U 26554JP  26037.47791667  .00000000  00000+0  00000-0 0  9994
2 36261  55.0000 108.0000 0000000   0.0000  18.0000 13.03091717    11
CTC2_L_00128011-01
1 36262U 25530RB  26037.47791667  .00000000  00000+0  00000-0 0  9998
2 36262  55.0000 120.0000 0000000   0.0000 120.0000 13.03091717    10
CTC2_L_00128011-02
1 36263U 24887UH  26037.47791667  .00000000  00000+0  00000-0 0  9993
2 36263  55.0000 120.0000 0000000   0.0000 210.0000 13.03091717    11
CTC2_L_00128011-03
1 36264U 26324TU  26037.47791667  .00000000  00000+0  00000-0 0  9992
2 36264  55.0000 120.0000 0000000   0.0000 300.0000 13.03091717    12
CTC2_L_00128011-04
1 36265U 25744L   26037.47791667  .00000000  00000+0  00000-0 0  9998
2 36265  55.0000 120.0000 0000000   0.0000  30.0000 13.03091717    13
CTC2_L_00128012-01
1 36266U 22159KD  26037.47791667  .00000000  00000+0  00000-0 0  9996
2 36266  55.0000 132.0000 0000000   0.0000 132.0000 13.03091717    10
CTC2_L_00128012-02
1 36267U 23331IH  26037.47791667  .00000000  00000+0  00000-0 0  9990
2 36267  55.0000 132.0000 0000000   0.0000 222.0000 13.03091717    11
CTC2_L_00128012-03
1 36268U 26320JC  26037.47791667  .00000000  00000+0  00000-0 0  9992
2 36268  55.0000 132.0000 0000000   0.0000 312.0000 13.03091717    12
CTC2_L_00128012-04
1 36269U 25137OS  26037.47791667  .00000000  00000+0  00000-0 0  9998
2 36269  55.0000 132.0000 0000000   0.0000  42.0000 13.03091717    13
CTC2_L_00128013-01
1 36270U 23421KX  26037.47791667  .00000000  00000+0  00000-0 0  9994
2 36270  55.0000 144.0000 0000000   0.0000 144.0000 13.03091717    11
CTC2_L_00128013-02
1 36271U 24015ZT  26037.47791667  .00000000  00000+0  00000-0 0  9995
2 36271  55.0000 144.0000 0000000   0.0000 234.0000 13.03091717    12
CTC2_L_00128013-03
1 36272U 23465UZ  26037.47791667  .00000000  00000+0  00000-0 0  9994
2 36272  55.0000 144.0000 0000000   0.0000 324.0000 13.03091717    13
CTC2_L_00128013-04
1 36273U 26676BE  26037.47791667  .00000000  00000+0  00000-0 0  9992
2 36273  55.0000 144.0000 0000000   0.0000  54.0000 13.03091717    14
CTC2_L_00128014-01
1 36274U 24433JJ  26037.47791667  .00000000  00000+0  00000-0 0  9992
2 36274  55.0000 156.0000 0000000   0.0000 156.0000 13.03091717    11
CTC2_L_00128014-02
1 36275U 23129K   26037.47791667  .00000000  00000+0  00000-0 0  9994
2 36275  55.0000 156.0000 0000000   0.0000 246.0000 13.03091717    12
CTC2_L_00128014-03
1 36276U 22717HY  26037.47791667  .00000000  00000+0  00000-0 0  9997
2 36276  55.0000 156.0000 0000000   0.0000 336.0000 13.03091717    13
CTC2_L_00128014-04
1 36277U 22283MX  26037.47791667  .00000000  00000+0  00000-0 0  9996
2 36277  55.0000 156.0000 0000000   0.0000  66.0000 13.03091717    14
CTC2_L_00128015-01
1 36278U 24162UJ  26037.47791667  .00000000  00000+0  00000-0 0  9995
2 36278  55.0000 168.0000 0000000   0.0000 168.0000 13.03091717    11
CTC2_L_00128015-02
1 36279U 22851TI  26037.47791667  .00000000  00000+0  00000-0 0  9999
2 36279  55.0000 168.0000 0000000   0.0000 258.0000 13.03091717    12
CTC2_L_00128015-03
1 36280U 24995NV  26037.47791667  .00000000  00000+0  00000-0 0  9992
2 36280  55.0000 168.0000 0000000   0.0000 348.0000 13.03091717    14
CTC2_L_00128015-04
1 36281U 24311EW  26037.47791667  .00000000  00000+0  00000-0 0  9995
2 36281  55.0000 168.0000 0000000   0.0000  78.0000 13.03091717    15
CTC2_L_00128016-01
1 36282U 24928EQ  26037.47791667  .00000000  00000+0  00000-0 0  9990
2 36282  55.0000 180.0000 0000000   0.0000 180.0000 13.03091717    14
CTC2_L_00128016-02
1 36283U 25893IS  26037.47791667  .00000000  00000+0  00000-0 0  9993
2 36283  55.0000 180.0000 0000000   0.0000 270.0000 13.03091717    15
